NORAD_CAT_ID,OBJECT_NAME,OBJECT_TYPE,EPOCH,MEAN_MOTION,ECCENTRICITY,INCLINATION,RA_OF_ASC_NODE,ARG_OF_PERICENTER,MEAN_ANOMALY,BSTAR,MEAN_MOTION_DOT,MEAN_MOTION_DDOT,TLE_LINE0,TLE_LINE1,TLE_LINE2,SEMIMAJOR_AXIS,PERIOD,APOGEE,PERIGEE,DECAYED
52337.0,STARLINK-3797,PAYLOAD,2022-05-04 18:00:02,15.83366176,0.0001034,53.2175,52.4092,66.3088,344.4112,-0.0043684,-0.00877251,0.0,0 STARLINK-3797,1 52337U 22045G   22124.75002315 -.00877251  00000-0 -43684-2 0  9996,2 52337  53.2175  52.4092 0001034  66.3088 344.4112 15.83366176  3318,6699.066,90.945,321.624,320.238,0.0
52337.0,STARLINK-3797,PAYLOAD,2022-05-05 14:00:01,15.81791736,0.0001071,53.2174,48.2283,68.6474,52.4869,-0.0046866,-0.00873893,0.0,0 STARLINK-3797,1 52337U 22045G   22125.58334491 -.00873893  00000-0 -46866-2 0  9994,2 52337  53.2174  48.2283 0001071  68.6474  52.4869 15.81791736  3448,6703.511,91.036,326.094,324.658,0.0
52337.0,STARLINK-3797,PAYLOAD,2022-05-05 22:00:00,15.81164539,0.0001200999999999,53.2176,46.5591,72.2512,147.7508,-0.0048469,-0.00877318,0.0,0 STARLINK-3797,1 52337U 22045G   22125.91667824 -.00877318  00000-0 -48469-2 0  9997,2 52337  53.2176  46.5591 0001201  72.2512 147.7508 15.81164539  1476,6705.283,91.072,327.954,326.343,0.0
52337.0,STARLINK-3797,PAYLOAD,2022-05-06 14:00:01,15.7990364,9.65e-05,53.2175,43.2233,80.4972,334.9754,-0.0051133,-0.00873297,0.0,0 STARLINK-3797,1 52337U 22045G   22126.58334491 -.00873297  00000-0 -51133-2 0  9996,2 52337  53.2175  43.2233 0000965  80.4972 334.9754 15.79903640  3600,6708.85,91.145,331.36300000000006,330.0680000000001,0.0
52337.0,STARLINK-3797,PAYLOAD,2022-05-07 12:00:00,15.781773499999998,0.0001136,53.2175,38.648,83.7174,145.5837,-0.0055766,-0.00879577,0.0,0 STARLINK-3797,1 52337U 22045G   22127.50001157 -.00879577  00000-0 -55766-2 0  9992,2 52337  53.2175  38.6480 0001136  83.7174 145.5837 15.78177350  3746,6713.7419999999975,91.244,336.37,334.844,0.0
52337.0,STARLINK-3797,PAYLOAD,2022-05-07 14:00:01,15.78015784,9.51e-05,53.2173,38.2322,85.7576,257.2468,-0.0055704,-0.00872839,0.0,0 STARLINK-3797,1 52337U 22045G   22127.58334491 -.00872839  00000-0 -55704-2 0  9996,2 52337  53.2173  38.2322 0000951  85.7576 257.2468 15.78015784  1748,6714.2,91.254,336.704,335.427,0.0
52337.0,STARLINK-3797,PAYLOAD,2022-05-07 22:00:00,15.77388471,0.0001025,53.2174,36.5728,78.9926,358.3414,-0.0057502,-0.00875612,0.0,0 STARLINK-3797,1 52337U 22045G   22127.91667824 -.00875612  00000-0 -57502-2 0  9992,2 52337  53.2174  36.5728 0001025  78.9926 358.3414 15.77388471  1790,6715.98,91.29,338.533,337.157,0.0
52337.0,STARLINK-3797,PAYLOAD,2022-05-08 14:00:01,15.76128421,0.0001107,53.2175,33.255,93.6209,170.1087,-0.0060607,-0.00872696,0.0,0 STARLINK-3797,1 52337U 22045G   22128.58334491 -.00872696  00000-0 -60607-2 0  9996,2 52337  53.2175  33.2550 0001107  93.6209 170.1087 15.76128421  3915,6719.559,91.363,342.168,340.68,0.0
52337.0,STARLINK-3797,PAYLOAD,2022-05-08 22:00:00,15.75501297,0.0001002,53.2176,31.6004,87.2084,268.5825,-0.0062593,-0.00876196,0.0,0 STARLINK-3797,1 52337U 22045G   22128.91667824 -.00876196  00000-0 -62593-2 0  9997,2 52337  53.2176  31.6004 0001002  87.2084 268.5825 15.75501297  1955,6721.342,91.399,343.881,342.534,0.0
52337.0,STARLINK-3797,PAYLOAD,2022-05-09 14:00:01,15.74242028,0.0001154,53.2171,28.2917,84.479,93.236,-0.0066073,-0.00875318,0.0,0 STARLINK-3797,1 52337U 22045G   22129.58335648 -.00875318  00000-0 -66073-2 0  9999,2 52337  53.2171  28.2917 0001154  84.4790  93.2360 15.74242028  4072,6724.926,91.473,347.56699999999995,346.015,0.0
52337.0,STARLINK-3797,PAYLOAD,2022-05-09 22:00:00,15.73436639,0.0001242,53.2173,26.6419,82.9159,184.5564,-0.0024675,-0.00336816,0.0,0 STARLINK-3797,1 52337U 22045G   22129.91667824 -.00336816  00000-0 -24675-2 0  9997,2 52337  53.2173  26.6419 0001242  82.9159 184.5564 15.73436639  2118,6727.221,91.519,349.921,348.25,0.0
52337.0,STARLINK-3797,PAYLOAD,2022-05-10 00:00:00,15.73280809,0.0001121,53.2172,26.2298,86.3677,293.4274,-0.00087255,-0.00121737,0.0,0 STARLINK-3797,1 52337U 22045G   22130.00001157 -.00121737  00000-0 -87255-3 0  9998,2 52337  53.2172  26.2298 0001121  86.3677 293.4274 15.73280809  4135,6727.665,91.528,350.284,348.776,0.0
52337.0,STARLINK-3797,PAYLOAD,2022-05-10 08:00:01,15.73294808,9.22e-05,53.2137,24.5827,89.085,19.7826,-0.00072681,-0.00101804,0.0,0 STARLINK-3797,1 52337U 22045G   22130.33334491 -.00101804  00000-0 -72681-3 0  9994,2 52337  53.2137  24.5827 0000922  89.0850  19.7826 15.73294808  4198,6727.625,91.528,350.11,348.87,0.0
52337.0,STARLINK-3797,PAYLOAD,2022-05-10 14:00:01,15.731890599999998,9.87e-05,53.2143,23.3438,99.737,345.9011,0.00072366,0.00102135,0.0,0 STARLINK-3797,1 52337U 22045G   22130.58334491  .00102135  00000-0  72366-3 0  9997,2 52337  53.2143  23.3438 0000987  99.7370 345.9011 15.73189060  2210,6727.926,91.534,350.455,349.12699999999984,0.0
52337.0,STARLINK-3797,PAYLOAD,2022-05-10 18:00:00,15.73254955,0.0001042,53.2141,22.5196,101.0744,209.0086,-0.00020549,-0.00029425,0.0,0 STARLINK-3797,1 52337U 22045G   22130.75001157 -.00029425  00000-0 -20549-3 0  9994,2 52337  53.2141  22.5196 0001042 101.0744 209.0086 15.73254955  4259,6727.738,91.53,350.305,348.902,0.0
52337.0,STARLINK-3797,PAYLOAD,2022-05-11 22:00:00,15.73161072,0.0001234,53.214,16.7474,94.0449,347.3499,9.7563e-05,0.00013071,0.0,0 STARLINK-3797,1 52337U 22045G   22131.91667824  .00013071  00000-0  97563-4 0  9991,2 52337  53.2140  16.7474 0001234  94.0449 347.3499 15.73161072  4440,6728.005999999999,91.535,350.701,349.041,0.0
52337.0,STARLINK-3797,PAYLOAD,2022-05-12 04:00:00,15.73171189,0.0001139,53.2137,15.5109,89.1863,328.8979,0.00066216,0.00093231,0.0,0 STARLINK-3797,1 52337U 22045G   22132.16667824  .00093231  00000-0  66216-3 0  9995,2 52337  53.2137  15.5109 0001139  89.1863 328.8979 15.73171189  4488,6727.977,91.535,350.6090000000001,349.076,0.0
52337.0,STARLINK-3797,PAYLOAD,2022-05-12 14:00:01,15.73260863,0.0001061,53.214,13.4464,105.593,153.6838,-4.548300000000001e-05,-7.014e-05,0.0,0 STARLINK-3797,1 52337U 22045G   22132.58334491 -.00007014  00000-0 -45483-4 0  9992,2 52337  53.2140  13.4464 0001061 105.5930 153.6838 15.73260863  1309,6727.722,91.53,350.3,348.87300000000016,0.0
52337.0,STARLINK-3797,PAYLOAD,2022-05-12 20:00:01,15.7326203,0.0001019,53.2142,12.2106,97.8256,138.1617,-0.00055057,-0.00077383,0.0,0 STARLINK-3797,1 52337U 22045G   22132.83334491 -.00077383  00000-0 -55057-3 0  9993,2 52337  53.2142  12.2106 0001019  97.8256 138.1617 15.73262030  4582,6727.718000000003,91.53,350.269,348.898,0.0
52337.0,STARLINK-3797,PAYLOAD,2022-05-12 22:00:00,15.73236218,0.0001031,53.214,11.7986,93.5546,254.6839,-0.00029195,-0.00041454,0.0,0 STARLINK-3797,1 52337U 22045G   22132.91667824 -.00041454  00000-0 -29195-3 0  9995,2 52337  53.2140  11.7986 0001031  93.5546 254.6839 15.73236218  1305,6727.792,91.531,350.351,348.963,0.0
52337.0,STARLINK-3797,PAYLOAD,2022-05-13 14:00:01,15.73183716,9.59e-05,53.2134,8.4978,109.9797,56.1066,-0.00015923,-0.00022889,0.0,0 STARLINK-3797,1 52337U 22045G   22133.58334491 -.00022889  00000-0 -15923-3 0  9995,2 52337  53.2134   8.4978 0000959 109.9797  56.1066 15.73183716  4708,6727.941999999999,91.534,350.452,349.161,0.0
52337.0,STARLINK-3797,PAYLOAD,2022-05-13 22:00:00,15.73151588,0.0001027,53.2136,6.8504,95.9791,159.0053,0.00030442,0.0004223,0.0,0 STARLINK-3797,1 52337U 22045G   22133.91667824  .00042230  00000-0  30442-3 0  9994,2 52337  53.2136   6.8504 0001027  95.9791 159.0053 15.73151588  1306,6728.033,91.536,350.589,349.207,0.0
52337.0,STARLINK-3797,PAYLOAD,2022-05-14 06:00:00,15.73214895,9.39e-05,53.2136,5.2005,93.3733,250.4948,7.9225e-05,0.0001052,0.0,0 STARLINK-3797,1 52337U 22045G   22134.25001157  .00010520  00000-0  79225-4 0  9993,2 52337  53.2136   5.2005 0000939  93.3733 250.4948 15.73214895  4802,6727.853,91.532,350.349,349.086,0.0
52337.0,STARLINK-3797,PAYLOAD,2022-05-14 14:00:01,15.73213444,0.0001113,53.2139,3.5491,104.7892,328.056,0.00019268,0.00026522,0.0,0 STARLINK-3797,1 52337U 22045G   22134.58334491  .00026522  00000-0  19268-3 0  9998,2 52337  53.2139   3.5491 0001113 104.7892 328.0560 15.73213444  1306,6727.857,91.532,350.471,348.973,0.0
52337.0,STARLINK-3797,PAYLOAD,2022-05-14 22:00:00,15.73266539,0.0001139,53.2136,1.9014,92.7408,69.0648,-0.0002648999999999,-0.00037736,0.0,0 STARLINK-3797,1 52337U 22045G   22134.91667824 -.00037736  00000-0 -26490-3 0  9990,2 52337  53.2136   1.9014 0001139  92.7408  69.0648 15.73266539  4915,6727.705,91.529,350.337,348.80400000000014,0.0
52337.0,STARLINK-3797,PAYLOAD,2022-05-15 14:00:01,15.73323788,0.0001065,53.2149,358.5976,110.1686,229.6207,-0.003047,-0.00410202,0.0,0 STARLINK-3797,1 52337U 22045G   22135.58335648 -.00410202  00000-0 -30470-2 0  9995,2 52337  53.2149 358.5976 0001065 110.1686 229.6207 15.73323788  5015,6727.542,91.526,350.124,348.691,0.0
52337.0,STARLINK-3797,PAYLOAD,2022-05-15 22:00:00,15.72795278,0.0001049,53.2163,356.9482,88.4183,340.3242,0.00050555,0.00069698,0.0,0 STARLINK-3797,1 52337U 22045G   22135.91667824  .00069698  00000-0  50555-3 0  9990,2 52337  53.2163 356.9482 0001049  88.4183 340.3242 15.72795278  1300,6729.049,91.557,351.62,350.208,0.0
52337.0,STARLINK-3797,PAYLOAD,2022-05-16 06:00:02,15.72896058,0.000117,53.2173,355.2961,110.4601,46.8389,-0.0056616,-0.00720911,0.0,0 STARLINK-3797,1 52337U 22045G   22136.25002315 -.00720911  00000-0 -56616-2 0  9993,2 52337  53.2173 355.2961 0001170 110.4601  46.8389 15.72896058  5123,6728.762,91.551,351.414,349.84,0.0
52337.0,STARLINK-3797,PAYLOAD,2022-05-16 14:00:01,15.72385103,0.0001221,53.2175,353.6446,101.3453,144.1399,-0.0057608,-0.00717902,0.0,0 STARLINK-3797,1 52337U 22045G   22136.58334491 -.00717902  00000-0 -57608-2 0  9990,2 52337  53.2175 353.6446 0001221 101.3453 144.1399 15.72385103  1309,6730.219,91.581,352.906,351.26300000000015,0.0
